NORAD_CAT_ID,OBJECT_NAME,OBJECT_TYPE,EPOCH,MEAN_MOTION,ECCENTRICITY,INCLINATION,RA_OF_ASC_NODE,ARG_OF_PERICENTER,MEAN_ANOMALY,BSTAR,MEAN_MOTION_DOT,MEAN_MOTION_DDOT,TLE_LINE0,TLE_LINE1,TLE_LINE2,SEMIMAJOR_AXIS,PERIOD,APOGEE,PERIGEE,DECAYED
55294.0,STARLINK-5286,PAYLOAD,2023-04-04 16:00:00,14.99345715,0.0002855,70.0008,222.2732,274.7327,274.6008,-0.032741,-0.00380204,0.0,0 STARLINK-5286,1 55294U 23010AB  23094.66667824 -.00380204  00000-0 -32741-1 0  9991,2 55294  70.0008 222.2732 0002855 274.7327 274.6008 14.99345715  1303,6947.054,96.042,570.902,566.935,0.0
55294.0,STARLINK-5286,PAYLOAD,2023-04-04 22:00:00,14.99083814,0.0002731,70.0006,221.6419,277.2723,180.9899,0.0023595,0.00028732,0.0,0 STARLINK-5286,1 55294U 23010AB  23094.91667824  .00028732  00000-0  23595-2 0  9990,2 55294  70.0006 221.6419 0002731 277.2723 180.9899 14.99083814 12237,6947.863,96.059,571.625,567.83,0.0
55294.0,STARLINK-5286,PAYLOAD,2023-04-05 14:00:01,14.99106647,0.0002792,70.0012,219.9592,275.168,179.8978,0.0018951,0.00023054,0.0,0 STARLINK-5286,1 55294U 23010AB  23095.58334491  .00023054  00000-0  18951-2 0  9997,2 55294  70.0012 219.9592 0002792 275.1680 179.8978 14.99106647  1303,6947.792,96.057,571.597,567.717,0.0
55294.0,STARLINK-5286,PAYLOAD,2023-04-05 16:00:00,14.99090688,0.0002786,70.0011,219.7489,277.9125,266.7634,0.0057435,0.00070507,0.0,0 STARLINK-5286,1 55294U 23010AB  23095.66667824  .00070507  00000-0  57435-2 0  9990,2 55294  70.0011 219.7489 0002786 277.9125 266.7634 14.99090688 12340,6947.842,96.058,571.642,567.771,0.0
55294.0,STARLINK-5286,PAYLOAD,2023-04-05 22:00:00,14.99157252,0.0002756,70.001,219.1177,279.3417,174.1439,-0.0011787,-0.00014433,0.0,0 STARLINK-5286,1 55294U 23010AB  23095.91667824 -.00014433  00000-0 -11787-2 0  9996,2 55294  70.0010 219.1177 0002756 279.3417 174.1439 14.99157252  1304,6947.636,96.054,571.416,567.586,0.0
55294.0,STARLINK-5286,PAYLOAD,2023-04-06 10:00:00,14.99181998,0.0002788,70.0016,217.8557,273.5377,357.636,-0.0016509,-0.00020174,0.0,0 STARLINK-5286,1 55294U 23010AB  23096.41667824 -.00020174  00000-0 -16509-2 0  9998,2 55294  70.0016 217.8557 0002788 273.5377 357.6360 14.99181998 12456,6947.559,96.052,571.361,567.487,0.0
55294.0,STARLINK-5286,PAYLOAD,2023-04-06 14:00:01,14.99177822,0.0002805,70.0014,217.4349,277.5431,172.9445,-0.0025264,-0.00030773,0.0,0 STARLINK-5286,1 55294U 23010AB  23096.58335648 -.00030773  00000-0 -25264-2 0  9996,2 55294  70.0014 217.4349 0002805 277.5431 172.9445 14.99177822  1309,6947.572,96.053,571.386,567.489,0.0
55294.0,STARLINK-5286,PAYLOAD,2023-04-06 22:00:00,14.99173564,0.0002749,70.0011,216.5934,278.7693,170.1443,-0.0027563,-0.00033548,0.0,0 STARLINK-5286,1 55294U 23010AB  23096.91667824 -.00033548  00000-0 -27563-2 0  9994,2 55294  70.0011 216.5934 0002749 278.7693 170.1443 14.99173564  1303,6947.585,96.053,571.36,567.541,0.0
55294.0,STARLINK-5286,PAYLOAD,2023-04-07 14:00:01,14.99202533,0.000291,70.0015,214.9105,275.9826,169.8877,-0.0082652,-0.00099552,0.0,0 STARLINK-5286,1 55294U 23010AB  23097.58334491 -.00099552  00000-0 -82652-2 0  9996,2 55294  70.0015 214.9105 0002910 275.9826 169.8877 14.99202533 12639,6947.496,96.051,571.383,567.339,0.0
55294.0,STARLINK-5286,PAYLOAD,2023-04-08 00:49:41,14.99142574,0.0002578,69.9991,213.7718,281.3696,78.7174,0.0002164,2.544e-05,0.0,0 STARLINK-5286,1 55294U 23010AB  23098.03451375  .00002544  00000-0  21640-3 0  9992,2 55294  69.9991 213.7718 0002578 281.3696  78.7174 14.99142574 12706,6947.681,96.055,571.337,567.755,0.0
55294.0,STARLINK-5286,PAYLOAD,2023-04-08 12:02:17,14.99139947,0.0002696,69.999,212.5925,277.4097,82.6756,-0.0001658,-2.113e-05,0.0,0 STARLINK-5286,1 55294U 23010AB  23098.50159053 -.00002113  00000-0 -16580-3 0  9993,2 55294  69.9990 212.5925 0002696 277.4097  82.6756 14.99139947 12771,6947.689,96.055,571.427,567.681,0.0
55294.0,STARLINK-5286,PAYLOAD,2023-04-08 18:26:36,14.99149559,0.0002822,69.9991,211.9185,274.7377,85.346,-5.1969e-05,-7.27e-06,0.0,0 STARLINK-5286,1 55294U 23010AB  23098.76847530 -.00000727  00000-0 -51969-4 0  9995,2 55294  69.9991 211.9185 0002822 274.7377  85.3460 14.99149559 12812,6947.66,96.054,571.485,567.564,0.0
55294.0,STARLINK-5286,PAYLOAD,2023-04-09 12:03:30,14.99144356,0.0002825,69.9991,210.0655,272.5056,87.578,-7.6486e-05,-1.026e-05,0.0,0 STARLINK-5286,1 55294U 23010AB  23099.50243869 -.00001026  00000-0 -76486-4 0  9997,2 55294  69.9991 210.0655 0002825 272.5056  87.5780 14.99144356 13222,6947.676,96.055,571.503,567.578,0.0
55294.0,STARLINK-5286,PAYLOAD,2023-04-09 16:51:45,14.99150028,0.0002869,69.9992,209.56,272.0906,87.9925,-4.8684e-05,-6.87e-06,0.0,0 STARLINK-5286,1 55294U 23010AB  23099.70260539 -.00000687  00000-0 -48684-4 0  9993,2 55294  69.9992 209.5600 0002869 272.0906  87.9925 14.99150028 13254,6947.658,96.054,571.516,567.53,0.0
55294.0,STARLINK-5286,PAYLOAD,2023-04-10 07:16:29,14.991366,0.0003017,70.0001,208.0464,270.2597,89.8217,7.4816e-05,8.18e-06,0.0,0 STARLINK-5286,1 55294U 23010AB  23100.30312460  .00000818  00000-0  74816-4 0  9993,2 55294  70.0001 208.0464 0003017 270.2597  89.8217 14.99136600 13044,6947.7,96.055,571.661,567.469,0.0
55294.0,STARLINK-5286,PAYLOAD,2023-04-10 16:52:59,14.99123012,0.0002697,70.0009,207.0355,273.0907,86.9944,0.00041763,4.996e-05,0.0,0 STARLINK-5286,1 55294U 23010AB  23100.70346927  .00004996  00000-0  41763-3 0  9997,2 55294  70.0009 207.0355 0002697 273.0907  86.9944 14.99123012 13407,6947.742,96.056,571.48,567.733,0.0
55294.0,STARLINK-5286,PAYLOAD,2023-04-11 05:41:38,14.99144523,0.0002818,70.0001,205.6876,274.571,85.5127,9.2551e-05,1.034e-05,0.0,0 STARLINK-5286,1 55294U 23010AB  23101.23725309  .00001034  00000-0  92551-4 0  9993,2 55294  70.0001 205.6876 0002818 274.5710  85.5127 14.99144523 13187,6947.675,96.055,571.498,567.582,0.0
55294.0,STARLINK-5286,PAYLOAD,2023-04-11 12:05:58,14.99144784,0.0002827,69.9999,205.0121,269.0499,91.0337,8.6139e-05,9.56e-06,0.0,0 STARLINK-5286,1 55294U 23010AB  23101.50414773  .00000956  00000-0  86139-4 0  9990,2 55294  69.9999 205.0121 0002827 269.0499  91.0337 14.99144784 13522,6947.674,96.055,571.503,567.575,0.0
55294.0,STARLINK-5286,PAYLOAD,2023-04-12 05:42:53,14.9913649,0.0002895,69.9991,203.1594,268.5636,91.5192,0.00010119,1.139e-05,0.0,0 STARLINK-5286,1 55294U 23010AB  23102.23811373  .00001139  00000-0  10119-3 0  9996,2 55294  69.9991 203.1594 0002895 268.5636  91.5192 14.99136490 13337,6947.7,96.055,571.576,567.554,0.0
55294.0,STARLINK-5286,PAYLOAD,2023-04-12 13:43:18,14.99129286,0.0002845,69.9993,202.3172,268.4949,91.5884,0.00021196,2.489e-05,0.0,0 STARLINK-5286,1 55294U 23010AB  23102.57173649  .00002489  00000-0  21196-3 0  9996,2 55294  69.9993 202.3172 0002845 268.4949  91.5884 14.99129286 13684,6947.722,96.056,571.564,567.611,0.0
55294.0,STARLINK-5286,PAYLOAD,2023-04-13 10:32:22,14.99139287,0.0002904,69.9993,200.1279,268.6378,91.4449,-3.3302e-05,-4.99e-06,0.0,0 STARLINK-5286,1 55294U 23010AB  23103.43914625 -.00000499  00000-0 -33302-4 0  9993,2 55294  69.9993 200.1279 0002904 268.6378  91.4449 14.99139287 13815,6947.691,96.055,571.574,567.539,0.0
55294.0,STARLINK-5286,PAYLOAD,2023-04-13 12:08:27,14.99139857,0.0002899,69.9995,199.9595,268.8765,91.2062,-2.6498e-05,-4.17e-06,0.0,0 STARLINK-5286,1 55294U 23010AB  23103.50586969 -.00000417  00000-0 -26498-4 0  9995,2 55294  69.9995 199.9595 0002899 268.8765  91.2062 14.99139857 13528,6947.69,96.055,571.569,567.54,0.0
55294.0,STARLINK-5286,PAYLOAD,2023-04-14 12:09:41,14.99136638,0.0002928,70.0,197.4341,264.8681,95.2144,4.3486e-05,4.36e-06,0.0,0 STARLINK-5286,1 55294U 23010AB  23104.50672958  .00000436  00000-0  43486-4 0  9995,2 55294  70.0000 197.4341 0002928 264.8681  95.2144 14.99136638 13974,6947.7,96.055,571.599,567.53,0.0
55294.0,STARLINK-5286,PAYLOAD,2023-04-14 23:22:18,14.99111556,0.0002452,70.0,196.2553,277.7889,82.2992,-0.00022839,-2.873e-05,0.0,0 STARLINK-5286,1 55294U 23010AB  23104.97382350 -.00002873  00000-0 -22839-3 0  9997,2 55294  70.0000 196.2553 0002452 277.7889  82.2992 14.99111556 13745,6947.777,96.057,571.346,567.938,0.0
55294.0,STARLINK-5286,PAYLOAD,2023-04-15 07:23:03,14.98880635,0.0003392,69.9996,195.4135,256.7571,103.321,-0.0026113,-0.00031558,0.0,0 STARLINK-5286,1 55294U 23010AB  23105.30767744 -.00031558  00000-0 -26113-2 0  9999,2 55294  69.9996 195.4135 0003392 256.7571 103.3210 14.98880635 13795,6948.491,96.072,572.713,567.999,0.0
55294.0,STARLINK-5286,PAYLOAD,2023-04-15 13:47:41,14.98699577,0.0003005,69.9996,194.7398,270.4438,89.6376,-0.0043814,-0.00052481,0.0,0 STARLINK-5286,1 55294U 23010AB  23105.57478830 -.00052481  00000-0 -43814-2 0  9998,2 55294  69.9996 194.7398 0003005 270.4438  89.6376 14.98699577 13831,6949.05,96.083,573.003,568.827,0.0
55294.0,STARLINK-5286,PAYLOAD,2023-04-15 21:48:16,14.98656888,0.000304,69.9995,193.898,278.8486,81.2329,-0.0044405,-0.00053125,0.0,0 STARLINK-5286,1 55294U 23010AB  23105.90852990 -.00053125  00000-0 -44405-2 0  9991,2 55294  69.9995 193.8980 0003040 278.8486  81.2329 14.98656888 13880,6949.182,96.086,573.16,568.935,0.0
55294.0,STARLINK-5286,PAYLOAD,2023-04-16 13:49:26,14.98608775,0.0003248,69.9993,192.2157,271.2425,88.8362,-0.004124,-0.00049311,0.0,0 STARLINK-5286,1 55294U 23010AB  23106.57600523 -.00049311  00000-0 -41240-2 0  9994,2 55294  69.9993 192.2157 0003248 271.2425  88.8362 14.98608775 14284,6949.331,96.089,573.453,568.939,0.0
55294.0,STARLINK-5286,PAYLOAD,2023-04-16 17:01:41,14.98599565,0.0002853,70.0006,191.8785,269.5827,90.5006,-0.0039997,-0.00047825,0.0,0 STARLINK-5286,1 55294U 23010AB  23106.70950400 -.00047825  00000-0 -39997-2 0  9995,2 55294  70.0006 191.8785 0002853 269.5827  90.5006 14.98599565 14305,6949.359,96.09,573.207,569.242,0.0
55294.0,STARLINK-5286,PAYLOAD,2023-04-17 05:50:41,14.98533643,0.0002592,69.9997,190.5307,279.4022,80.6844,-0.0036106,-0.00043135,0.0,0 STARLINK-5286,1 55294U 23010AB  23107.24353571 -.00043135  00000-0 -36106-2 0  9990,2 55294  69.9997 190.5307 0002592 279.4022  80.6844 14.98533643 14084,6949.563,96.094,573.23,569.627,0.0
